[{"OBJECT_NAME":"STARLINK-34221","OBJECT_ID":"2025-130R","EPOCH":"2026-03-09T10:31:23.847744","MEAN_MOTION":15.30194722,"ECCENTRICITY":0.00013965,"INCLINATION":53.1602,"RA_OF_ASC_NODE":89.7733,"ARG_OF_PERICENTER":76.5586,"MEAN_ANOMALY":283.5571,"EPHEMERIS_TYPE":0,"CLASSIFICATION_TYPE":"U","NORAD_CAT_ID":64453,"ELEMENT_SET_NO":999,"REV_AT_EPOCH":4066,"BSTAR":0.0009795642,"MEAN_MOTION_DOT":0.0002876,"MEAN_MOTION_DDOT":0},{"OBJECT_NAME":"KUIPER-00223","OBJECT_ID":"2026-030V","EPOCH":"2026-03-09T17:18:46.022400","MEAN_MOTION":15.34146211,"ECCENTRICITY":0.00128242,"INCLINATION":51.8827,"RA_OF_ASC_NODE":219.2782,"ARG_OF_PERICENTER":59.0052,"MEAN_ANOMALY":301.2192,"EPHEMERIS_TYPE":0,"CLASSIFICATION_TYPE":"U","NORAD_CAT_ID":67783,"ELEMENT_SET_NO":999,"REV_AT_EPOCH":509,"BSTAR":0.00090645373,"MEAN_MOTION_DOT":0.00030225,"MEAN_MOTION_DDOT":0}]
